{
    "links": {
        "self": "http://www.neowsapp.com/rest/v1/neo/54053751?api_key=iIulBulltgU6a56xZRHN4H3l9WmuAYTsLGpBGhQ2"
    },
    "id": "54053751",
    "neo_reference_id": "54053751",
    "name": "(2020 RY)",
    "designation": "2020 RY",
    "nasa_jpl_url": "http://ssd.jpl.nasa.gov/sbdb.cgi?sstr=54053751",
    "absolute_magnitude_h": 27.004,
    "estimated_diameter": {
        "kilometers": {
            "estimated_diameter_min": 0.0105622143,
            "estimated_diameter_max": 0.0236178293
        },
        "meters": {
            "estimated_diameter_min": 10.5622143445,
            "estimated_diameter_max": 23.6178292673
        },
        "miles": {
            "estimated_diameter_min": 0.0065630537,
            "estimated_diameter_max": 0.0146754342
        },
        "feet": {
            "estimated_diameter_min": 34.6529353101,
            "estimated_diameter_max": 77.4863189733
        }
    },
    "is_potentially_hazardous_asteroid": false,
    "close_approach_data": [
        {
            "close_approach_date": "2020-09-02",
            "close_approach_date_full": "2020-Sep-02 16:04",
            "epoch_date_close_approach": 1599062640000,
            "relative_velocity": {
                "kilometers_per_second": "7.7325729147",
                "kilometers_per_hour": "27837.2624930308",
                "miles_per_hour": "17296.9923529613"
            },
            "miss_distance": {
                "astronomical": "0.0032738376",
                "lunar": "1.2735228264",
                "kilometers": "489759.131685912",
                "miles": "304322.2128211056"
            },
            "orbiting_body": "Earth"
        },
        {
            "close_approach_date": "2020-09-03",
            "close_approach_date_full": "2020-Sep-03 01:54",
            "epoch_date_close_approach": 1599098040000,
            "relative_velocity": {
                "kilometers_per_second": "7.1976950507",
                "kilometers_per_hour": "25911.7021825547",
                "miles_per_hour": "16100.5240589324"
            },
            "miss_distance": {
                "astronomical": "0.0034576082",
                "lunar": "1.3450095898",
                "kilometers": "517250.822014534",
                "miles": "321404.7570632092"
            },
            "orbiting_body": "Moon"
        }
    ],
    "orbital_data": {
        "orbit_id": "2",
        "orbit_determination_date": "2020-09-10 06:23:29",
        "first_observation_date": "2020-09-07",
        "last_observation_date": "2020-09-10",
        "data_arc_in_days": 3,
        "observations_used": 17,
        "orbit_uncertainty": "8",
        "minimum_orbit_intersection": ".00169131",
        "jupiter_tisserand_invariant": "4.095",
        "epoch_osculation": "2459101.5",
        "eccentricity": ".4224075407465464",
        "semi_major_axis": "1.699724344673435",
        "inclination": "3.992603246168182",
        "ascending_node_longitude": "338.2770632041505",
        "orbital_period": "809.4055332248879",
        "perihelion_distance": ".9817479642928942",
        "perihelion_argument": "336.9762119241674",
        "aphelion_distance": "2.417700725053976",
        "perihelion_time": "2459074.091294011107",
        "mean_anomaly": "12.19059390005426",
        "mean_motion": ".4447708660523531",
        "equinox": "J2000",
        "orbit_class": {
            "orbit_class_type": "APO",
            "orbit_class_description": "Near-Earth asteroid orbits which cross the Earth’s orbit similar to that of 1862 Apollo",
            "orbit_class_range": "a (semi-major axis) > 1.0 AU; q (perihelion) < 1.017 AU"
        }
    },
    "is_sentry_object": false
}